GALASSIA
1 41170U 15077E   18291.47886069  .00002035  00000-0  73075-4 0  9998
2 41170  14.9881 191.7979 0013088 334.9563  25.0122 15.13422614157130
                
